[{"OBJECT_NAME":"STARLINK-31474","OBJECT_ID":"2024-056J","EPOCH":"2026-03-09T10:19:57.436896","MEAN_MOTION":15.27574581,"ECCENTRICITY":0.00017282,"INCLINATION":43.0036,"RA_OF_ASC_NODE":225.3421,"ARG_OF_PERICENTER":280.3945,"MEAN_ANOMALY":79.6712,"EPHEMERIS_TYPE":0,"CLASSIFICATION_TYPE":"U","NORAD_CAT_ID":59304,"ELEMENT_SET_NO":999,"REV_AT_EPOCH":11119,"BSTAR":9.171097e-5,"MEAN_MOTION_DOT":2.262e-5,"MEAN_MOTION_DDOT":0},{"OBJECT_NAME":"TEVEL2-6","OBJECT_ID":"2025-052F","EPOCH":"2026-03-09T15:35:24.554400","MEAN_MOTION":15.30760889,"ECCENTRICITY":0.0004769,"INCLINATION":97.4016,"RA_OF_ASC_NODE":325.0381,"ARG_OF_PERICENTER":95.6604,"MEAN_ANOMALY":264.5181,"EPHEMERIS_TYPE":0,"CLASSIFICATION_TYPE":"U","NORAD_CAT_ID":63215,"ELEMENT_SET_NO":999,"REV_AT_EPOCH":5486,"BSTAR":0.00070909,"MEAN_MOTION_DOT":0.00021046,"MEAN_MOTION_DDOT":0}]
